[{"OBJECT_NAME":"STARLINK-1477","OBJECT_ID":"2020-038AA","EPOCH":"2026-03-09T15:11:57.486336","MEAN_MOTION":15.14348726,"ECCENTRICITY":5.98e-5,"INCLINATION":53.0515,"RA_OF_ASC_NODE":213.2201,"ARG_OF_PERICENTER":95.7123,"MEAN_ANOMALY":264.3937,"EPHEMERIS_TYPE":0,"CLASSIFICATION_TYPE":"U","NORAD_CAT_ID":45754,"ELEMENT_SET_NO":999,"REV_AT_EPOCH":31652,"BSTAR":0.0019315,"MEAN_MOTION_DOT":0.00035702,"MEAN_MOTION_DDOT":0},{"OBJECT_NAME":"PEGASUS DEB","OBJECT_ID":"1994-029AFV","EPOCH":"2026-03-07T18:19:12.614880","MEAN_MOTION":14.92266405,"ECCENTRICITY":0.0107713,"INCLINATION":81.5817,"RA_OF_ASC_NODE":82.8303,"ARG_OF_PERICENTER":304.7008,"MEAN_ANOMALY":54.4096,"EPHEMERIS_TYPE":0,"CLASSIFICATION_TYPE":"U","NORAD_CAT_ID":39922,"ELEMENT_SET_NO":999,"REV_AT_EPOCH":62967,"BSTAR":0.0012051888,"MEAN_MOTION_DOT":0.00013798,"MEAN_MOTION_DDOT":0}]
